OBJECT_NAME,OBJECT_ID,EPOCH,MEAN_MOTION,ECCENTRICITY,INCLINATION,RA_OF_ASC_NODE,ARG_OF_PERICENTER,MEAN_ANOMALY,EPHEMERIS_TYPE,CLASSIFICATION_TYPE,NORAD_CAT_ID,ELEMENT_SET_NO,REV_AT_EPOCH,BSTAR,MEAN_MOTION_DOT,MEAN_MOTION_DDOT
SKY MUSTER 2 (NBN1B),2016-060B,2026-06-19T22:07:16.333248,1.00270174,.00014664,0.0186,333.5141,103.0969,308.1429,0,U,41794,999,3554,0,-.25E-5,0
HIMAWARI-9,2016-064A,2026-06-19T22:06:01.452960,1.00272997,.00007679,0.0183,317.4058,146.4710,276.5209,0,U,41836,999,3523,0,-.28E-5,0
SHIJIAN-17 (SJ-17),2016-065A,2026-06-19T14:42:43.554240,0.99855462,.0001902,5.7599,72.5770,27.4663,260.6195,0,U,41838,999,3522,0,.81E-6,0
GOES 16,2016-071A,2026-06-20T04:40:57.515232,1.00271415,.00003006,0.3500,85.5197,337.7159,170.7159,0,U,41866,999,3513,0,-.96E-6,0
TIANLIAN 1-04,2016-072A,2026-06-20T05:06:51.329376,1.00271829,.00425479,0.8756,82.8982,90.1157,348.8942,0,U,41869,999,3533,0,.26E-6,0
WGS F8 (USA 272),2016-075A,2026-06-20T03:54:38.678688,1.00268225,.00003072,0.0419,50.3229,331.4530,95.0904,0,U,41879,999,3485,0,0,0
FENGYUN 4A,2016-077A,2026-06-20T06:34:26.364000,1.00266979,.00086381,2.3315,80.2519,153.6184,256.9413,0,U,41882,999,3496,0,-.362E-5,0
ECHOSTAR 19,2016-079A,2026-06-19T22:40:48.444960,1.00277305,.00009255,0.0182,19.3424,75.8942,56.0290,0,U,41893,999,3473,0,-.145E-5,0
JCSAT-110A (JCSAT-15),2016-082A,2026-06-20T04:13:14.744640,1.00269770,.00005287,0.0184,18.3419,76.5405,346.8710,0,U,41903,999,3478,0,-.356E-5,0
STAR ONE D1,2016-082B,2026-06-20T05:23:39.125760,1.00266680,.00026236,0.0418,55.7570,59.8871,149.7306,0,U,41904,999,3480,0,0,0
TJS-2,2017-001A,2026-06-20T02:52:51.756672,1.00270406,.00004127,0.8419,85.2876,54.5094,238.2956,0,U,41911,999,3474,0,-.11E-6,0
SBIRS GEO-4 (USA 273),2017-004A,2026-06-20T06:05:05.008416,1.00272087,.0002075,2.2498,43.3808,36.5270,300.7222,0,U,41937,999,3462,0,.118E-5,0
HISPASAT 36W-1,2017-006A,2026-06-20T04:06:12.409344,1.00274209,.00011036,0.0081,295.7233,144.3159,213.8941,0,U,41942,999,3427,0,-.249E-5,0
TELKOM 3S,2017-007A,2026-06-20T06:32:49.018848,1.00269236,.00023732,0.0159,2.8558,88.1393,33.7086,0,U,41944,999,3417,0,0,0
INTELSAT 32E (IS-32E),2017-007B,2026-06-20T04:04:12.601056,1.00270661,.00006273,0.0183,13.4283,315.6456,317.1739,0,U,41945,999,3425,0,-.274E-5,0
ECHOSTAR 23,2017-014A,2026-06-20T00:19:52.046976,1.00271442,.00021591,0.0178,9.4528,78.4628,75.3790,0,U,42070,999,3395,0,-.62E-6,0
WGS F9 (USA 275),2017-016A,2026-06-19T23:05:07.920672,1.00270097,.0000365,0.0189,354.7894,318.4442,289.2241,0,U,42075,999,3392,0,0,0
SES-10,2017-017A,2026-06-20T05:39:59.911776,1.00270997,.00027101,0.0214,40.3458,57.4802,188.7269,0,U,42432,999,3378,0,-.277E-5,0
CHINASAT 16 (SJ-13),2017-018A,2026-06-20T04:13:38.743968,1.00271663,.0004097,0.1035,89.8840,134.5735,217.8376,0,U,42662,999,3377,0,-.357E-5,0
KOREASAT 7,2017-023A,2026-06-20T06:32:04.090848,1.00273648,.00007246,0.0194,341.4975,69.0928,71.8087,0,U,42691,999,3340,0,-.367E-5,0
SGDC,2017-023B,2026-06-19T11:08:46.700160,1.00269861,.00026635,0.0156,1.6765,94.1070,264.2343,0,U,42692,999,3343,0,-.255E-5,0
GSAT-9,2017-024A,2026-06-20T01:18:59.084928,1.00268065,.00025305,0.0143,63.9379,21.2050,300.1778,0,U,42695,999,3332,0,-.291E-5,0
INMARSAT 5-F4,2017-025A,2026-06-20T04:32:39.872832,1.00271090,.00006997,0.0179,20.9316,349.1954,22.9293,0,U,42698,999,3330,0,.7E-6,0
SES-15,2017-026A,2026-06-20T06:29:44.229120,1.00268891,.00004341,0.0195,339.2017,78.4572,179.0837,0,U,42709,999,746,0,.55E-6,0
QZS-2 (MICHIBIKI-2),2017-028A,2026-06-19T11:28:51.813408,1.00283355,.0758837,39.4240,243.1214,269.2922,69.3071,0,U,42738,999,764,0,-.184E-5,0
VIASAT-2,2017-029A,2026-06-20T05:15:38.683872,1.00270163,.00001236,0.0171,299.7585,84.7744,252.9165,0,U,42740,999,3323,0,-.27E-5,0
EUTELSAT 172B,2017-029B,2026-06-20T04:24:38.851200,1.00271104,.00000585,0.0378,157.9645,141.9307,206.6784,0,U,42741,999,3377,0,-.11E-6,0
GSAT-19,2017-031A,2026-06-20T06:12:49.265856,1.00269785,.0007006,0.0306,265.2288,166.6198,337.7028,0,U,42747,999,3317,0,.121E-5,0
ECHOSTAR 21,2017-032A,2026-06-20T06:02:05.294688,1.00271292,.00022123,1.7708,355.9536,95.1822,278.1087,0,U,42749,999,3313,0,.6E-6,0
BULGARIASAT-1,2017-038A,2026-06-20T05:59:43.022400,1.00273622,.00032509,0.0130,56.6185,40.0092,263.6515,0,U,42801,999,3287,0,.6E-7,0
HELLAS-SAT 3,2017-040A,2026-06-20T06:10:19.506144,1.00273106,.00047533,0.0557,51.9435,3.8594,344.2326,0,U,42814,999,3283,0,.147E-5,0
GSAT-17,2017-040B,2026-06-20T01:17:51.692928,1.00270770,.00018494,0.0164,37.4340,268.9951,74.7820,0,U,42815,999,3281,0,-.263E-5,0
