SKY MUSTER 2 (NBN1B)    
1 41794U 16060B   26170.92171682 -.00000250  00000+0  00000+0 0  9996
2 41794   0.0186 333.5141 0001466 103.0969 308.1429  1.00270174 35543
HIMAWARI-9              
1 41836U 16064A   26170.92085015 -.00000280  00000+0  00000+0 0  9994
2 41836   0.0183 317.4058 0000767 146.4710 276.5209  1.00272997 35238
SHIJIAN-17 (SJ-17)      
1 41838U 16065A   26170.61300410  .00000081  00000+0  00000+0 0  9990
2 41838   5.7599  72.5770 0001902  27.4663 260.6195  0.99855462 35228
GOES 16                 
1 41866U 16071A   26171.19511013 -.00000096  00000+0  00000+0 0  9992
2 41866   0.3500  85.5197 0000300 337.7159 170.7159  1.00271415 35131
TIANLIAN 1-04           
1 41869U 16072A   26171.21309409  .00000026  00000+0  00000+0 0  9995
2 41869   0.8756  82.8982 0042547  90.1157 348.8942  1.00271829 35330
WGS F8 (USA 272)        
1 41879U 16075A   26171.16294767  .00000000  00000+0  00000+0 0  9995
2 41879   0.0419  50.3229 0000307 331.4530  95.0904  1.00268225 34858
FENGYUN 4A              
1 41882U 16077A   26171.27391625 -.00000362  00000+0  00000+0 0  9996
2 41882   2.3315  80.2519 0008638 153.6184 256.9413  1.00266979 34969
ECHOSTAR 19             
1 41893U 16079A   26170.94500515 -.00000145  00000+0  00000+0 0  9992
2 41893   0.0182  19.3424 0000925  75.8942  56.0290  1.00277305 34736
JCSAT-110A (JCSAT-15)   
1 41903U 16082A   26171.17586510 -.00000356  00000+0  00000+0 0  9997
2 41903   0.0184  18.3419 0000528  76.5405 346.8710  1.00269770 34783
STAR ONE D1             
1 41904U 16082B   26171.22475840  .00000000  00000+0  00000+0 0  9992
2 41904   0.0418  55.7570 0002623  59.8871 149.7306  1.00266680 34807
TJS-2                   
1 41911U 17001A   26171.12004348 -.00000011  00000+0  00000+0 0  9995
2 41911   0.8419  85.2876 0000412  54.5094 238.2956  1.00270406 34743
SBIRS GEO-4 (USA 273)   
1 41937U 17004A   26171.25353019  .00000118  00000+0  00000+0 0  9999
2 41937   2.2498  43.3808 0002075  36.5270 300.7222  1.00272087 34622
HISPASAT 36W-1          
1 41942U 17006A   26171.17097696 -.00000249  00000+0  00000+0 0  9990
2 41942   0.0081 295.7233 0001103 144.3159 213.8941  1.00274209 34273
TELKOM 3S               
1 41944U 17007A   26171.27278957  .00000000  00000+0  00000+0 0  9999
2 41944   0.0159   2.8558 0002373  88.1393  33.7086  1.00269236 34175
INTELSAT 32E (IS-32E)   
1 41945U 17007B   26171.16959029 -.00000274  00000+0  00000+0 0  9998
2 41945   0.0183  13.4283 0000627 315.6456 317.1739  1.00270661 34251
ECHOSTAR 23             
1 42070U 17014A   26171.01379684 -.00000062  00000+0  00000+0 0  9998
2 42070   0.0178   9.4528 0002159  78.4628  75.3790  1.00271442 33953
WGS F9 (USA 275)        
1 42075U 17016A   26170.96189723  .00000000  00000+0  00000+0 0  9992
2 42075   0.0189 354.7894 0000365 318.4442 289.2241  1.00270097 33929
SES-10                  
1 42432U 17017A   26171.23611009 -.00000277  00000+0  00000+0 0  9995
2 42432   0.0214  40.3458 0002710  57.4802 188.7269  1.00270997 33781
CHINASAT 16 (SJ-13)     
1 42662U 17018A   26171.17614287 -.00000357  00000+0  00000+0 0  9994
2 42662   0.1035  89.8840 0004097 134.5735 217.8376  1.00271663 33776
KOREASAT 7              
1 42691U 17023A   26171.27226957 -.00000367  00000+0  00000+0 0  9997
2 42691   0.0194 341.4975 0000724  69.0928  71.8087  1.00273648 33400
SGDC                    
1 42692U 17023B   26170.46442940 -.00000255  00000+0  00000+0 0  9996
2 42692   0.0156   1.6765 0002663  94.1070 264.2343  1.00269861 33430
GSAT-9                  
1 42695U 17024A   26171.05485052 -.00000291  00000+0  00000+0 0  9997
2 42695   0.0143  63.9379 0002530  21.2050 300.1778  1.00268065 33328
INMARSAT 5-F4           
1 42698U 17025A   26171.18935038  .00000070  00000+0  00000+0 0  9993
2 42698   0.0179  20.9316 0000699 349.1954  22.9293  1.00271090 33304
SES-15                  
1 42709U 17026A   26171.27065080  .00000055  00000+0  00000+0 0  9991
2 42709   0.0195 339.2017 0000434  78.4572 179.0837  1.00268891  7465
QZS-2 (MICHIBIKI-2)     
1 42738U 17028A   26170.47837747 -.00000184  00000+0  00000+0 0  9997
2 42738  39.4240 243.1214 0758837 269.2922  69.3071  1.00283355  7645
VIASAT-2                
1 42740U 17029A   26171.21919773 -.00000270  00000+0  00000+0 0  9990
2 42740   0.0171 299.7585 0000123  84.7744 252.9165  1.00270163 33234
EUTELSAT 172B           
1 42741U 17029B   26171.18378300 -.00000011  00000+0  00000+0 0  9995
2 42741   0.0378 157.9645 0000058 141.9307 206.6784  1.00271104 33772
GSAT-19                 
1 42747U 17031A   26171.25890354  .00000121  00000+0  00000+0 0  9991
2 42747   0.0306 265.2288 0007006 166.6198 337.7028  1.00269785 33170
ECHOSTAR 21             
1 42749U 17032A   26171.25145017  .00000060  00000+0  00000+0 0  9995
2 42749   1.7708 355.9536 0002212  95.1822 278.1087  1.00271292 33138
BULGARIASAT-1           
1 42801U 17038A   26171.24980350  .00000006  00000+0  00000+0 0  9996
2 42801   0.0130  56.6185 0003250  40.0092 263.6515  1.00273622 32878
HELLAS-SAT 3            
1 42814U 17040A   26171.25717021  .00000147  00000+0  00000+0 0  9993
2 42814   0.0557  51.9435 0004753   3.8594 344.2326  1.00273106 32833
GSAT-17                 
1 42815U 17040B   26171.05407052 -.00000263  00000+0  00000+0 0  9992
2 42815   0.0164  37.4340 0001849 268.9951  74.7820  1.00270770 32812
